TIANMU-1 10             
1 57402U 23101D   26064.84051817  .00009308  00000+0  33143-3 0  9993
2 57402  97.2755 118.0700 0006627 145.2921 214.8753 15.29138853145844
FENGYUN 3F              
1 57490U 23111A   26064.81233905  .00000123  00000+0  78475-4 0  9992
2 57490  98.6935 136.7107 0001303  81.5838 278.5487 14.19918475134190
ARKTIKA-M 2             
1 58584U 23198A   26064.07652728  .00000150  00000+0  00000+0 0  9992
2 58584  63.2186 165.9003 6877723 267.7621  18.8474  2.00612037 16238
TIANMU-1 11             
1 58645U 23205A   26064.87134130  .00008663  00000+0  34107-3 0  9995
2 58645  97.3545  88.0838 0009464  21.3201 338.8430 15.25818201121769
TIANMU-1 12             
1 58646U 23205B   26064.83799336  .00008065  00000+0  31862-3 0  9998
2 58646  97.3533  87.8309 0007239   8.1219 352.0135 15.25741519121742
TIANMU-1 13             
1 58647U 23205C   26064.86901634  .00008796  00000+0  34673-3 0  9992
2 58647  97.3561  88.0986 0006862 348.3588  11.7491 15.25791308121742
TIANMU-1 14             
1 58648U 23205D   26064.85352760  .00008501  00000+0  33539-3 0  9996
2 58648  97.3495  87.3557 0007781 351.7022   8.4086 15.25768870121748
TIANMU-1 19             
1 58660U 23208A   26064.87066333  .00012425  00000+0  43366-3 0  9992
2 58660  97.4389 180.8541 0004195 333.7318  26.3709 15.29735968121524
TIANMU-1 20             
1 58661U 23208B   26064.85794226  .00012234  00000+0  41153-3 0  9990
2 58661  97.4328 181.3711 0006464 340.3337  19.7653 15.30925158121606
TIANMU-1 21             
1 58662U 23208C   26064.86146617  .00014104  00000+0  44549-3 0  9997
2 58662  97.4383 183.6346 0006245 333.5336  26.5587 15.32920538121721
TIANMU-1 22             
1 58663U 23208D   26064.88735385  .00011302  00000+0  39935-3 0  9996
2 58663  97.4384 180.8842 0003453   7.5234 352.6057 15.29360162121537
TIANMU-1 15             
1 58700U 24004A   26064.85128501  .00008980  00000+0  35426-3 0  9995
2 58700  97.4664 251.0948 0006989   3.6456 356.4831 15.25766507120011
TIANMU-1 16             
1 58701U 24004B   26064.83485559  .00008975  00000+0  35377-3 0  9992
2 58701  97.4606 250.4043 0005516   9.9126 350.2220 15.25800227120017
TIANMU-1 17             
1 58702U 24004C   26064.81727809  .00009015  00000+0  35497-3 0  9997
2 58702  97.4638 250.8386 0004769  13.3041 346.8322 15.25836080120000
TIANMU-1 18             
1 58703U 24004D   26064.86789661  .00009363  00000+0  36913-3 0  9997
2 58703  97.4655 251.1000 0004178  14.5678 345.5680 15.25786749120010
INSAT-3DS               
1 58990U 24033A   26064.83989197 -.00000162  00000+0  00000+0 0  9993
2 58990   0.0522 262.1651 0002335  98.8753 186.9382  1.00270279 46036
METEOR-M2 4             
1 59051U 24039A   26064.85063208  .00000053  00000+0  43544-4 0  9999
2 59051  98.6901  25.5126 0008098 105.9431 254.2640 14.22416418104577
