[{"OBJECT_NAME":"TIANMU-1 10","OBJECT_ID":"2023-101D","EPOCH":"2026-03-05T20:10:20.769888","MEAN_MOTION":15.29138853,"ECCENTRICITY":0.0006627,"INCLINATION":97.2755,"RA_OF_ASC_NODE":118.07,"ARG_OF_PERICENTER":145.2921,"MEAN_ANOMALY":214.8753,"EPHEMERIS_TYPE":0,"CLASSIFICATION_TYPE":"U","NORAD_CAT_ID":57402,"ELEMENT_SET_NO":999,"REV_AT_EPOCH":14584,"BSTAR":0.00033143,"MEAN_MOTION_DOT":9.308e-5,"MEAN_MOTION_DDOT":0},{"OBJECT_NAME":"FENGYUN 3F","OBJECT_ID":"2023-111A","EPOCH":"2026-03-05T19:29:46.093920","MEAN_MOTION":14.19918475,"ECCENTRICITY":0.0001303,"INCLINATION":98.6935,"RA_OF_ASC_NODE":136.7107,"ARG_OF_PERICENTER":81.5838,"MEAN_ANOMALY":278.5487,"EPHEMERIS_TYPE":0,"CLASSIFICATION_TYPE":"U","NORAD_CAT_ID":57490,"ELEMENT_SET_NO":999,"REV_AT_EPOCH":13419,"BSTAR":7.8475e-5,"MEAN_MOTION_DOT":1.23e-6,"MEAN_MOTION_DDOT":0},{"OBJECT_NAME":"ARKTIKA-M 2","OBJECT_ID":"2023-198A","EPOCH":"2026-03-05T01:50:11.956992","MEAN_MOTION":2.00612037,"ECCENTRICITY":0.6877723,"INCLINATION":63.2186,"RA_OF_ASC_NODE":165.9003,"ARG_OF_PERICENTER":267.7621,"MEAN_ANOMALY":18.8474,"EPHEMERIS_TYPE":0,"CLASSIFICATION_TYPE":"U","NORAD_CAT_ID":58584,"ELEMENT_SET_NO":999,"REV_AT_EPOCH":1623,"BSTAR":0,"MEAN_MOTION_DOT":1.5e-6,"MEAN_MOTION_DDOT":0},{"OBJECT_NAME":"TIANMU-1 11","OBJECT_ID":"2023-205A","EPOCH":"2026-03-05T20:54:43.888320","MEAN_MOTION":15.25818201,"ECCENTRICITY":0.0009464,"INCLINATION":97.3545,"RA_OF_ASC_NODE":88.0838,"ARG_OF_PERICENTER":21.3201,"MEAN_ANOMALY":338.843,"EPHEMERIS_TYPE":0,"CLASSIFICATION_TYPE":"U","NORAD_CAT_ID":58645,"ELEMENT_SET_NO":999,"REV_AT_EPOCH":12176,"BSTAR":0.00034107,"MEAN_MOTION_DOT":8.663e-5,"MEAN_MOTION_DDOT":0},{"OBJECT_NAME":"TIANMU-1 12","OBJECT_ID":"2023-205B","EPOCH":"2026-03-05T20:06:42.626304","MEAN_MOTION":15.25741519,"ECCENTRICITY":0.0007239,"INCLINATION":97.3533,"RA_OF_ASC_NODE":87.8309,"ARG_OF_PERICENTER":8.1219,"MEAN_ANOMALY":352.0135,"EPHEMERIS_TYPE":0,"CLASSIFICATION_TYPE":"U","NORAD_CAT_ID":58646,"ELEMENT_SET_NO":999,"REV_AT_EPOCH":12174,"BSTAR":0.00031862,"MEAN_MOTION_DOT":8.065e-5,"MEAN_MOTION_DDOT":0},{"OBJECT_NAME":"TIANMU-1 13","OBJECT_ID":"2023-205C","EPOCH":"2026-03-05T20:51:23.011776","MEAN_MOTION":15.25791308,"ECCENTRICITY":0.0006862,"INCLINATION":97.3561,"RA_OF_ASC_NODE":88.0986,"ARG_OF_PERICENTER":348.3588,"MEAN_ANOMALY":11.7491,"EPHEMERIS_TYPE":0,"CLASSIFICATION_TYPE":"U","NORAD_CAT_ID":58647,"ELEMENT_SET_NO":999,"REV_AT_EPOCH":12174,"BSTAR":0.00034673,"MEAN_MOTION_DOT":8.796e-5,"MEAN_MOTION_DDOT":0},{"OBJECT_NAME":"TIANMU-1 14","OBJECT_ID":"2023-205D","EPOCH":"2026-03-05T20:29:04.784640","MEAN_MOTION":15.2576887,"ECCENTRICITY":0.0007781,"INCLINATION":97.3495,"RA_OF_ASC_NODE":87.3557,"ARG_OF_PERICENTER":351.7022,"MEAN_ANOMALY":8.4086,"EPHEMERIS_TYPE":0,"CLASSIFICATION_TYPE":"U","NORAD_CAT_ID":58648,"ELEMENT_SET_NO":999,"REV_AT_EPOCH":12174,"BSTAR":0.00033539,"MEAN_MOTION_DOT":8.501e-5,"MEAN_MOTION_DDOT":0},{"OBJECT_NAME":"TIANMU-1 19","OBJECT_ID":"2023-208A","EPOCH":"2026-03-05T20:53:45.311712","MEAN_MOTION":15.29735968,"ECCENTRICITY":0.0004195,"INCLINATION":97.4389,"RA_OF_ASC_NODE":180.8541,"ARG_OF_PERICENTER":333.7318,"MEAN_ANOMALY":26.3709,"EPHEMERIS_TYPE":0,"CLASSIFICATION_TYPE":"U","NORAD_CAT_ID":58660,"ELEMENT_SET_NO":999,"REV_AT_EPOCH":12152,"BSTAR":0.00043366,"MEAN_MOTION_DOT":0.00012425,"MEAN_MOTION_DDOT":0},{"OBJECT_NAME":"TIANMU-1 20","OBJECT_ID":"2023-208B","EPOCH":"2026-03-05T20:35:26.211264","MEAN_MOTION":15.30925158,"ECCENTRICITY":0.0006464,"INCLINATION":97.4328,"RA_OF_ASC_NODE":181.3711,"ARG_OF_PERICENTER":340.3337,"MEAN_ANOMALY":19.7653,"EPHEMERIS_TYPE":0,"CLASSIFICATION_TYPE":"U","NORAD_CAT_ID":58661,"ELEMENT_SET_NO":999,"REV_AT_EPOCH":12160,"BSTAR":0.00041153,"MEAN_MOTION_DOT":0.00012234,"MEAN_MOTION_DDOT":0},{"OBJECT_NAME":"TIANMU-1 21","OBJECT_ID":"2023-208C","EPOCH":"2026-03-05T20:40:30.677088","MEAN_MOTION":15.32920538,"ECCENTRICITY":0.0006245,"INCLINATION":97.4383,"RA_OF_ASC_NODE":183.6346,"ARG_OF_PERICENTER":333.5336,"MEAN_ANOMALY":26.5587,"EPHEMERIS_TYPE":0,"CLASSIFICATION_TYPE":"U","NORAD_CAT_ID":58662,"ELEMENT_SET_NO":999,"REV_AT_EPOCH":12172,"BSTAR":0.00044549,"MEAN_MOTION_DOT":0.00014104,"MEAN_MOTION_DDOT":0},{"OBJECT_NAME":"TIANMU-1 22","OBJECT_ID":"2023-208D","EPOCH":"2026-03-05T21:17:47.372640","MEAN_MOTION":15.29360162,"ECCENTRICITY":0.0003453,"INCLINATION":97.4384,"RA_OF_ASC_NODE":180.8842,"ARG_OF_PERICENTER":7.5234,"MEAN_ANOMALY":352.6057,"EPHEMERIS_TYPE":0,"CLASSIFICATION_TYPE":"U","NORAD_CAT_ID":58663,"ELEMENT_SET_NO":999,"REV_AT_EPOCH":12153,"BSTAR":0.00039935,"MEAN_MOTION_DOT":0.00011302,"MEAN_MOTION_DDOT":0},{"OBJECT_NAME":"TIANMU-1 15","OBJECT_ID":"2024-004A","EPOCH":"2026-03-05T20:25:51.024864","MEAN_MOTION":15.25766507,"ECCENTRICITY":0.0006989,"INCLINATION":97.4664,"RA_OF_ASC_NODE":251.0948,"ARG_OF_PERICENTER":3.6456,"MEAN_ANOMALY":356.4831,"EPHEMERIS_TYPE":0,"CLASSIFICATION_TYPE":"U","NORAD_CAT_ID":58700,"ELEMENT_SET_NO":999,"REV_AT_EPOCH":12001,"BSTAR":0.00035426,"MEAN_MOTION_DOT":8.98e-5,"MEAN_MOTION_DDOT":0},{"OBJECT_NAME":"TIANMU-1 16","OBJECT_ID":"2024-004B","EPOCH":"2026-03-05T20:02:11.522976","MEAN_MOTION":15.25800227,"ECCENTRICITY":0.0005516,"INCLINATION":97.4606,"RA_OF_ASC_NODE":250.4043,"ARG_OF_PERICENTER":9.9126,"MEAN_ANOMALY":350.222,"EPHEMERIS_TYPE":0,"CLASSIFICATION_TYPE":"U","NORAD_CAT_ID":58701,"ELEMENT_SET_NO":999,"REV_AT_EPOCH":12001,"BSTAR":0.00035377,"MEAN_MOTION_DOT":8.975e-5,"MEAN_MOTION_DDOT":0},{"OBJECT_NAME":"TIANMU-1 17","OBJECT_ID":"2024-004C","EPOCH":"2026-03-05T19:36:52.826976","MEAN_MOTION":15.2583608,"ECCENTRICITY":0.0004769,"INCLINATION":97.4638,"RA_OF_ASC_NODE":250.8386,"ARG_OF_PERICENTER":13.3041,"MEAN_ANOMALY":346.8322,"EPHEMERIS_TYPE":0,"CLASSIFICATION_TYPE":"U","NORAD_CAT_ID":58702,"ELEMENT_SET_NO":999,"REV_AT_EPOCH":12000,"BSTAR":0.00035497,"MEAN_MOTION_DOT":9.015e-5,"MEAN_MOTION_DDOT":0},{"OBJECT_NAME":"TIANMU-1 18","OBJECT_ID":"2024-004D","EPOCH":"2026-03-05T20:49:46.267104","MEAN_MOTION":15.25786749,"ECCENTRICITY":0.0004178,"INCLINATION":97.4655,"RA_OF_ASC_NODE":251.1,"ARG_OF_PERICENTER":14.5678,"MEAN_ANOMALY":345.568,"EPHEMERIS_TYPE":0,"CLASSIFICATION_TYPE":"U","NORAD_CAT_ID":58703,"ELEMENT_SET_NO":999,"REV_AT_EPOCH":12001,"BSTAR":0.00036913,"MEAN_MOTION_DOT":9.363e-5,"MEAN_MOTION_DDOT":0},{"OBJECT_NAME":"INSAT-3DS","OBJECT_ID":"2024-033A","EPOCH":"2026-03-05T20:09:26.666208","MEAN_MOTION":1.00270279,"ECCENTRICITY":0.0002335,"INCLINATION":0.0522,"RA_OF_ASC_NODE":262.1651,"ARG_OF_PERICENTER":98.8753,"MEAN_ANOMALY":186.9382,"EPHEMERIS_TYPE":0,"CLASSIFICATION_TYPE":"U","NORAD_CAT_ID":58990,"ELEMENT_SET_NO":999,"REV_AT_EPOCH":4603,"BSTAR":0,"MEAN_MOTION_DOT":-1.62e-6,"MEAN_MOTION_DDOT":0},{"OBJECT_NAME":"METEOR-M2 4","OBJECT_ID":"2024-039A","EPOCH":"2026-03-05T20:24:54.611712","MEAN_MOTION":14.22416418,"ECCENTRICITY":0.0008098,"INCLINATION":98.6901,"RA_OF_ASC_NODE":25.5126,"ARG_OF_PERICENTER":105.9431,"MEAN_ANOMALY":254.264,"EPHEMERIS_TYPE":0,"CLASSIFICATION_TYPE":"U","NORAD_CAT_ID":59051,"ELEMENT_SET_NO":999,"REV_AT_EPOCH":10457,"BSTAR":4.3544e-5,"MEAN_MOTION_DOT":5.3e-7,"MEAN_MOTION_DDOT":0}]
